{"type": "FeatureCollection", "features": [ {"type": "Feature", "properties": {"norad_id": 36173, "name": "FENGYUN 1C DEB", "group": "fengyun-1c-debris", "lat": -60.841750370672955, "lon": -45.722419703541235, "alt_km": 828.6378034276804, "timestamp": "2025-12-07T20:38:14.351417+00:00", "meta": {"OBJECT_NAME": "FENGYUN 1C DEB", "OBJECT_ID": "1999-025DSW", "EPOCH": "2025-11-27T03:07:28.371072", "MEAN_MOTION": 14.25142788, "ECCENTRICITY": 0.01460397, "INCLINATION": 98.2105, "RA_OF_ASC_NODE": 289.2336, "ARG_OF_PERICENTER": 231.4906, "MEAN_ANOMALY": 127.3105, "EPHEMERIS_TYPE": 0, "CLASSIFICATION_TYPE": "U", "NORAD_CAT_ID": 36173, "ELEMENT_SET_NO": 999, "REV_AT_EPOCH": 58868, "BSTAR": 0.00039734703, "MEAN_MOTION_DOT": 1e-05, "MEAN_MOTION_DDOT": 0}, "tle": {"line1": "1 36173U 99025DSW 25331.13018948  .00001000  00000+0  39735-3 0  9993", "line2": "2 36173  98.2105 289.2336 0146039 231.4906 127.3105 14.25142788588684"}}, "geometry": {"type": "Point", "coordinates": [-45.722419703541235, -60.841750370672955]}}, {"type": "Feature", "properties": {"norad_id": 36180, "name": "FENGYUN 1C DEB", "group": "fengyun-1c-debris", "lat": -9.989597399001124, "lon": 47.18617363286508, "alt_km": 738.1578653438664, "timestamp": "2025-12-07T20:38:14.351427+00:00", "meta": {"OBJECT_NAME": "FENGYUN 1C DEB", "OBJECT_ID": "1999-025DTD", "EPOCH": "2025-12-05T21:21:22.276224", "MEAN_MOTION": 14.20680074, "ECCENTRICITY": 0.02106275, "INCLINATION": 98.4572, "RA_OF_ASC_NODE": 43.7979, "ARG_OF_PERICENTER": 50.8055, "MEAN_ANOMALY": 311.1621, "EPHEMERIS_TYPE": 0, "CLASSIFICATION_TYPE": "U", "NORAD_CAT_ID": 36180, "ELEMENT_SET_NO": 999, "REV_AT_EPOCH": 70486, "BSTAR": 0.00091841135, "MEAN_MOTION_DOT": 2.432e-05, "MEAN_MOTION_DDOT": 0}, "tle": {"line1": "1 36180U 99025DTD 25339.88984116  .00002432  00000+0  91841-3 0  9996", "line2": "2 36180  98.4572  43.7979 0210627  50.8055 311.1621 14.20680074704867"}}, "geometry": {"type": "Point", "coordinates": [47.18617363286508, -9.989597399001124]}}, {"type": "Feature", "properties": {"norad_id": 36182, "name": "FENGYUN 1C DEB", "group": "fengyun-1c-debris", "lat": -15.887716013741905, "lon": -88.22772904885993, "alt_km": 784.9185618989777, "timestamp": "2025-12-07T20:38:14.351437+00:00", "meta": {"OBJECT_NAME": "FENGYUN 1C DEB", "OBJECT_ID": "1999-025DTF", "EPOCH": "2025-12-06T12:54:34.337088", "MEAN_MOTION": 14.3464253, "ECCENTRICITY": 0.00214216, "INCLINATION": 99.0884, "RA_OF_ASC_NODE": 267.7711, "ARG_OF_PERICENTER": 93.0807, "MEAN_ANOMALY": 267.2828, "EPHEMERIS_TYPE": 0, "CLASSIFICATION_TYPE": "U", "NORAD_CAT_ID": 36182, "ELEMENT_SET_NO": 999, "REV_AT_EPOCH": 87868, "BSTAR": 0.0026353126, "MEAN_MOTION_DOT": 7.431e-05, "MEAN_MOTION_DDOT": 0}, "tle": {"line1": "1 36182U 99025DTF 25340.53789742  .00007431  00000+0  26353-2 0  9999", "line2": "2 36182  99.0884 267.7711 0021421  93.0807 267.2828 14.34642530878682"}}, "geometry": {"type": "Point", "coordinates": [-88.22772904885993, -15.887716013741905]}}, {"type": "Feature", "properties": {"norad_id": 36186, "name": "FENGYUN 1C DEB", "group": "fengyun-1c-debris", "lat": -45.75984742949591, "lon": -146.30966271395488, "alt_km": 535.4891823732441, "timestamp": "2025-12-07T20:38:14.351446+00:00", "meta": {"OBJECT_NAME": "FENGYUN 1C DEB", "OBJECT_ID": "1999-025DTK", "EPOCH": "2025-12-06T21:01:26.135616", "MEAN_MOTION": 15.09149878, "ECCENTRICITY": 0.00147295, "INCLINATION": 98.9889, "RA_OF_ASC_NODE": 203.1836, "ARG_OF_PERICENTER": 349.9169, "MEAN_ANOMALY": 20.7197, "EPHEMERIS_TYPE": 0, "CLASSIFICATION_TYPE": "U", "NORAD_CAT_ID": 36186, "ELEMENT_SET_NO": 999, "REV_AT_EPOCH": 61482, "BSTAR": 0.015546812, "MEAN_MOTION_DOT": 0.00256087, "MEAN_MOTION_DDOT": 0}, "tle": {"line1": "1 36186U 99025DTK 25340.87599694  .00256087  00000+0  15547-1 0  9990", "line2": "2 36186  98.9889 203.1836 0014729 349.9169  20.7197 15.09149878614823"}}, "geometry": {"type": "Point", "coordinates": [-146.30966271395488, -45.75984742949591]}}, {"type": "Feature", "properties": {"norad_id": 36188, "name": "FENGYUN 1C DEB", "group": "fengyun-1c-debris", "lat": -44.3071196029333, "lon": 90.58769556581763, "alt_km": 664.8474922577934, "timestamp": "2025-12-07T20:38:14.351456+00:00", "meta": {"OBJECT_NAME": "FENGYUN 1C DEB", "OBJECT_ID": "1999-025DTM", "EPOCH": "2025-12-06T00:26:45.096864", "MEAN_MOTION": 14.6043913, "ECCENTRICITY": 0.0047401, "INCLINATION": 98.5867, "RA_OF_ASC_NODE": 80.1988, "ARG_OF_PERICENTER": 325.7511, "MEAN_ANOMALY": 34.0633, "EPHEMERIS_TYPE": 0, "CLASSIFICATION_TYPE": "U", "NORAD_CAT_ID": 36188, "ELEMENT_SET_NO": 999, "REV_AT_EPOCH": 87954, "BSTAR": 0.0036772102, "MEAN_MOTION_DOT": 0.0001809, "MEAN_MOTION_DDOT": 0}, "tle": {"line1": "1 36188U 99025DTM 25340.01857751  .00018090  00000+0  36772-2 0  9993", "line2": "2 36188  98.5867  80.1988 0047401 325.7511  34.0633 14.60439130879548"}}, "geometry": {"type": "Point", "coordinates": [90.58769556581763, -44.3071196029333]}}, {"type": "Feature", "properties": {"norad_id": 36198, "name": "FENGYUN 1C DEB", "group": "fengyun-1c-debris", "lat": -61.747664262121724, "lon": 175.0217137787099, "alt_km": 901.7353704061297, "timestamp": "2025-12-07T20:38:14.351466+00:00", "meta": {"OBJECT_NAME": "FENGYUN 1C DEB", "OBJECT_ID": "1999-025DTX", "EPOCH": "2025-12-06T12:47:36.841920", "MEAN_MOTION": 14.07854185, "ECCENTRICITY": 0.00971183, "INCLINATION": 98.6232, "RA_OF_ASC_NODE": 10.1569, "ARG_OF_PERICENTER": 132.8086, "MEAN_ANOMALY": 228.1301, "EPHEMERIS_TYPE": 0, "CLASSIFICATION_TYPE": "U", "NORAD_CAT_ID": 36198, "ELEMENT_SET_NO": 999, "REV_AT_EPOCH": 63500, "BSTAR": 0.002549244, "MEAN_MOTION_DOT": 4.475e-05, "MEAN_MOTION_DDOT": 0}, "tle": {"line1": "1 36198U 99025DTX 25340.53306530  .00004475  00000+0  25492-2 0  9994", "line2": "2 36198  98.6232  10.1569 0097118 132.8086 228.1301 14.07854185635009"}}, "geometry": {"type": "Point", "coordinates": [175.0217137787099, -61.747664262121724]}}, {"type": "Feature", "properties": {"norad_id": 36199, "name": "FENGYUN 1C DEB", "group": "fengyun-1c-debris", "lat": 69.01724211312082, "lon": -19.11019057592359, "alt_km": 720.704915579312, "timestamp": "2025-12-07T20:38:14.351476+00:00", "meta": {"OBJECT_NAME": "FENGYUN 1C DEB", "OBJECT_ID": "1999-025DTY", "EPOCH": "2025-12-07T06:52:27.531264", "MEAN_MOTION": 14.29638374, "ECCENTRICITY": 0.00930428, "INCLINATION": 98.2903, "RA_OF_ASC_NODE": 2.6885, "ARG_OF_PERICENTER": 83.4711, "MEAN_ANOMALY": 277.7054, "EPHEMERIS_TYPE": 0, "CLASSIFICATION_TYPE": "U", "NORAD_CAT_ID": 36199, "ELEMENT_SET_NO": 999, "REV_AT_EPOCH": 64902, "BSTAR": 0.00045662632, "MEAN_MOTION_DOT": 1.186e-05, "MEAN_MOTION_DDOT": 0}, "tle": {"line1": "1 36199U 99025DTY 25341.28642976  .00001186  00000+0  45663-3 0  9994", "line2": "2 36199  98.2903   2.6885 0093042  83.4711 277.7054 14.29638374649022"}}, "geometry": {"type": "Point", "coordinates": [-19.11019057592359, 69.01724211312082]}}, {"type": "Feature", "properties": {"norad_id": 36200, "name": "FENGYUN 1C DEB", "group": "fengyun-1c-debris", "lat": 68.22211111890383, "lon": 30.729039230145396, "alt_km": 675.352327421635, "timestamp": "2025-12-07T20:38:14.351486+00:00", "meta": {"OBJECT_NAME": "FENGYUN 1C DEB", "OBJECT_ID": "1999-025DTZ", "EPOCH": "2025-12-07T03:51:08.362944", "MEAN_MOTION": 14.58359228, "ECCENTRICITY": 0.00334809, "INCLINATION": 99.3875, "RA_OF_ASC_NODE": 54.4014, "ARG_OF_PERICENTER": 25.778, "MEAN_ANOMALY": 334.5075, "EPHEMERIS_TYPE": 0, "CLASSIFICATION_TYPE": "U", "NORAD_CAT_ID": 36200, "ELEMENT_SET_NO": 999, "REV_AT_EPOCH": 73279, "BSTAR": 0.0062871133, "MEAN_MOTION_DOT": 0.00029404, "MEAN_MOTION_DDOT": 0}, "tle": {"line1": "1 36200U 99025DTZ 25341.16051346  .00029404  00000+0  62871-2 0  9991", "line2": "2 36200  99.3875  54.4014 0033480  25.7780 334.5075 14.58359228732791"}}, "geometry": {"type": "Point", "coordinates": [30.729039230145396, 68.22211111890383]}}, {"type": "Feature", "properties": {"norad_id": 36203, "name": "FENGYUN 1C DEB", "group": "fengyun-1c-debris", "lat": 51.5687386569193, "lon": -86.6419881928391, "alt_km": 650.6113904773028, "timestamp": "2025-12-07T20:38:14.351496+00:00", "meta": {"OBJECT_NAME": "FENGYUN 1C DEB", "OBJECT_ID": "1999-025DUC", "EPOCH": "2025-12-07T00:54:14.344128", "MEAN_MOTION": 14.78258536, "ECCENTRICITY": 0.00831314, "INCLINATION": 99.0967, "RA_OF_ASC_NODE": 284.0796, "ARG_OF_PERICENTER": 166.3343, "MEAN_ANOMALY": 194.0143, "EPHEMERIS_TYPE": 0, "CLASSIFICATION_TYPE": "U", "NORAD_CAT_ID": 36203, "ELEMENT_SET_NO": 999, "REV_AT_EPOCH": 63345, "BSTAR": 0.0017902936, "MEAN_MOTION_DOT": 0.00013726, "MEAN_MOTION_DDOT": 0}, "tle": {"line1": "1 36203U 99025DUC 25341.03766602  .00013726  00000+0  17903-2 0  9994", "line2": "2 36203  99.0967 284.0796 0083131 166.3343 194.0143 14.78258536633456"}}, "geometry": {"type": "Point", "coordinates": [-86.6419881928391, 51.5687386569193]}}, {"type": "Feature", "properties": {"norad_id": 36204, "name": "FENGYUN 1C DEB", "group": "fengyun-1c-debris", "lat": -53.07666706037281, "lon": -114.01124603046034, "alt_km": 776.0346923634133, "timestamp": "2025-12-07T20:38:14.351505+00:00", "meta": {"OBJECT_NAME": "FENGYUN 1C DEB", "OBJECT_ID": "1999-025DUD", "EPOCH": "2025-12-04T12:52:24.876192", "MEAN_MOTION": 14.34488584, "ECCENTRICITY": 0.0020013, "INCLINATION": 99.2915, "RA_OF_ASC_NODE": 75.0011, "ARG_OF_PERICENTER": 185.0266, "MEAN_ANOMALY": 175.0719, "EPHEMERIS_TYPE": 0, "CLASSIFICATION_TYPE": "U", "NORAD_CAT_ID": 36204, "ELEMENT_SET_NO": 999, "REV_AT_EPOCH": 94310, "BSTAR": 0.0030031, "MEAN_MOTION_DOT": 8.445e-05, "MEAN_MOTION_DDOT": 0}, "tle": {"line1": "1 36204U 99025DUD 25338.53639903  .00008445  00000+0  30031-2 0  9998", "line2": "2 36204  99.2915  75.0011 0020013 185.0266 175.0719 14.34488584943106"}}, "geometry": {"type": "Point", "coordinates": [-114.01124603046034, -53.07666706037281]}}]}